SPACEMOBILE-004         
1 61049U 24163E   26196.62160951  .00012160  00000+0  55841-3 0  9995
2 61049  52.9675 178.1586 0006579 225.4338 134.6120 15.20780797102091
CZ-8A R/B               
1 66004U 25231K   26196.56087171 -.00000043  00000+0  43431-4 0  9994
2 66004  50.0042 278.6032 0116565 323.8982  35.4104 14.30162280 39002
SZ-21 MODULE            
1 66515U 25246C   26196.95471448  .00035292  00000+0  19466-3 0  9997
2 66515  41.4721 127.8201 0008592 225.8060 134.2080 15.78866927 38280
SPACEMOBILE-006         
1 67232U 25309A   26197.26383964  .00000871  00000+0  56828-4 0  9993
2 67232  52.9937 198.4390 0009975 218.8660 141.1617 15.18656148 31013
SPACEMOBILE-008         
1 69589U 26139A   26197.20988309  .00000129  00000+0  24228-4 0  9995
2 69589  52.9949 130.8006 0005108  58.8976 301.2516 15.12802700  4370
SPACEMOBILE-009         
1 69590U 26139B   26197.07977669  .00000164  00000+0  26252-4 0  9997
2 69590  52.9940 131.4074 0005333  54.4529 305.6959 15.12696048  4354
SPACEMOBILE-010         
1 69591U 26139C   26197.21514214  .00000374  00000+0  38279-4 0  9992
2 69591  52.9946 130.8307 0005289  46.7134 313.4298 15.12529173  4389
